[{"OBJECT_NAME":"YAOGAN-30 08C","OBJECT_ID":"2020-076C","EPOCH":"2026-03-09T22:12:19.215360","MEAN_MOTION":15.02142271,"ECCENTRICITY":0.00075536,"INCLINATION":34.9972,"RA_OF_ASC_NODE":335.6323,"ARG_OF_PERICENTER":280.0853,"MEAN_ANOMALY":79.9003,"EPHEMERIS_TYPE":0,"CLASSIFICATION_TYPE":"U","NORAD_CAT_ID":46809,"ELEMENT_SET_NO":999,"REV_AT_EPOCH":29320,"BSTAR":0.00034959402,"MEAN_MOTION_DOT":4.668e-5,"MEAN_MOTION_DDOT":0},{"OBJECT_NAME":"STARLINK-35052","OBJECT_ID":"2025-200W","EPOCH":"2026-03-09T18:22:26.334912","MEAN_MOTION":15.05644096,"ECCENTRICITY":2.41e-5,"INCLINATION":97.6015,"RA_OF_ASC_NODE":139.8947,"ARG_OF_PERICENTER":162.8845,"MEAN_ANOMALY":197.239,"EPHEMERIS_TYPE":0,"CLASSIFICATION_TYPE":"U","NORAD_CAT_ID":65540,"ELEMENT_SET_NO":999,"REV_AT_EPOCH":2906,"BSTAR":9.8704499e-5,"MEAN_MOTION_DOT":1.364e-5,"MEAN_MOTION_DDOT":0}]
